H1 CPF 01  gfz 2021 09 19 00  7621 terrasarx 
H2 0702601  6201 31698    2021 09 19 00 59 42 2021 09 24 00 00 42   120 1 1  0 0 0
H9
10 0 59476  20142.000000  0    1245768.123   -746622.293  -6740384.279
10 0 59476  20262.000000  0     339686.988   -863153.145  -6832414.041
10 0 59476  20382.000000  0    -574043.324   -948814.775  -6805298.986
10 0 59476  20502.000000  0   -1479048.042  -1002132.828  -6659504.983
10 0 59476  20622.000000  0   -2359077.608  -1022473.965  -6397539.296
10 0 59476  20742.000000  0   -3198292.905  -1010051.997  -6023910.746
10 0 59476  20862.000000  0   -3981544.437   -965915.751  -5545061.144
10 0 59476  20982.000000  0   -4694646.074   -891918.550  -4969266.002
10 0 59476  21102.000000  0   -5324635.132   -790669.370  -4306502.528
10 0 59476  21222.000000  0   -5860014.740   -665467.155  -3568287.988
10 0 59476  21342.000000  0   -6290974.587   -520218.430  -2767488.391
10 0 59476  21462.000000  0   -6609582.869   -359339.704  -1918099.377
10 0 59476  21582.000000  0   -6809945.660   -187647.822  -1035003.852
10 0 59476  21702.000000  0   -6888329.239    -10238.714   -133707.672
10 0 59476  21822.000000  0   -6843236.968    167641.393    769939.352
10 0 59476  21942.000000  0   -6675443.518    340728.672   1660028.857
10 0 59476  22062.000000  0   -6387984.037    503874.962   2520883.149
10 0 59476  22182.000000  0   -5986096.951    652178.529   3337340.579
10 0 59476  22302.000000  0   -5477121.697    781108.972   4095030.121
10 0 59476  22422.000000  0   -4870355.328    886622.709   4780628.374
10 0 59476  22542.000000  0   -4176872.282    965266.212   5382094.720
10 0 59476  22662.000000  0   -3409312.801   1014264.851   5888880.368
10 0 59476  22782.000000  0   -2581644.307   1031595.378   6292109.978
10 0 59476  22902.000000  0   -1708900.123   1016040.742   6584732.500
10 0 59476  23022.000000  0    -806900.614    967226.661   6761637.854
10 0 59476  23142.000000  0     108035.243    885638.406   6819739.433
10 0 59476  23262.000000  0    1019384.371    772617.996   6758024.098
10 0 59476  23382.000000  0    1910716.615    630342.279   6577568.738
10 0 59476  23502.000000  0    2765989.710    461781.864   6281523.000
10 0 59476  23622.000000  0    3569838.513    270641.392   5875058.821
10 0 59476  23742.000000  0    4307853.826     61281.847   5365285.236
10 0 59476  23862.000000  0    4966845.081   -161373.635   4761130.026
10 0 59476  23982.000000  0    5535082.892   -391948.861   4073189.113
10 0 59476  24102.000000  0    6002517.238   -624736.240   3313545.389
10 0 59476  24222.000000  0    6360966.216   -853828.571   2495558.035
10 0 59476  24342.000000  0    6604268.941  -1073257.806   1633625.050
10 0 59476  24462.000000  0    6728398.254  -1277137.577    742925.709
10 0 59476  24582.000000  0    6731533.830  -1459806.663   -160852.765
10 0 59476  24702.000000  0    6614089.854  -1615969.153  -1061801.511
10 0 59476  24822.000000  0    6378696.244  -1740826.704  -1944078.749
10 0 59476  24942.000000  0    6030135.955  -1830200.649  -2792196.595
10 0 59476  25062.000000  0    5575239.052  -1880640.428  -3591298.062
10 0 59476  25182.000000  0    5022738.403  -1889515.768  -4327418.911
10 0 59476  25302.000000  0    4383091.319  -1855090.529  -4987730.107
10 0 59476  25422.000000  0    3668270.718  -1776577.525  -5560756.642
10 0 59476  25542.000000  0    2891531.407  -1654172.878  -6036567.950
10 0 59476  25662.000000  0    2067159.297  -1489069.048  -6406938.750
10 0 59476  25782.000000  0    1210206.876  -1283446.859  -6665481.285
10 0 59476  25902.000000  0     336218.925  -1040447.547  -6807744.508
10 0 59476  26022.000000  0    -539045.201   -764125.266  -6831282.275
10 0 59476  26142.000000  0   -1399889.206   -459380.516  -6735690.474
10 0 59476  26262.000000  0   -2230955.173   -131875.110  -6522613.307
10 0 59476  26382.000000  0   -3017491.236    212070.028  -6195716.894
10 0 59476  26502.000000  0   -3745607.871    565592.485  -5760633.359
10 0 59476  26622.000000  0   -4402522.477    921420.537  -5224874.355
10 0 59476  26742.000000  0   -4976786.132   1272017.096  -4597712.774
10 0 59476  26862.000000  0   -5458490.385   1609735.092  -3890034.538
10 0 59476  26982.000000  0   -5839447.332   1926980.111  -3114158.507
10 0 59476  27102.000000  0   -6113339.925   2216375.897  -2283629.089
10 0 59476  27222.000000  0   -6275838.778   2470930.265  -1412983.282
10 0 59476  27342.000000  0   -6324681.563   2684197.440   -517495.556
10 0 59476  27462.000000  0   -6259712.252   2850431.937    387094.959
10 0 59476  27582.000000  0   -6082877.079   2964729.959   1284869.017
10 0 59476  27702.000000  0   -5798177.648   3023155.122   2160016.174
10 0 59476  27822.000000  0   -5411582.249   3022844.150   2997122.117
10 0 59476  27942.000000  0   -4930898.859   2962090.585   3781447.913
10 0 59476  28062.000000  0   -4365611.303   2840403.294   4499195.644
10 0 59476  28182.000000  0   -3726684.460   2658539.496   5137752.897
10 0 59476  28302.000000  0   -3026344.536   2418512.269   5685913.742
10 0 59476  28422.000000  0   -2277837.711   2123572.252   6134073.268
10 0 59476  28542.000000  0   -1495172.946   1778163.283   6474390.871
10 0 59476  28662.000000  0    -692855.025   1387853.764   6700920.550
10 0 59476  28782.000000  0     114385.106    959245.041   6809707.673
10 0 59476  28902.000000  0     911860.126    499858.860   6798853.647
10 0 59476  29022.000000  0    1685192.440     18005.661   6668546.718
10 0 59476  29142.000000  0    2420572.127   -477364.878   6421059.465
10 0 59476  29262.000000  0    3105003.381   -976829.451   6060712.681
10 0 59476  29382.000000  0    3726536.488  -1470669.071   5593805.178
10 0 59476  29502.000000  0    4274480.499  -1949057.938   5028509.042
10 0 59476  29622.000000  0    4739591.779  -2402258.663   4374732.420
10 0 59476  29742.000000  0    5114237.543  -2820821.209   3643951.953
10 0 59476  29862.000000  0    5392529.839  -3195781.365   2849013.538
10 0 59476  29982.000000  0    5570424.361  -3518852.861   2003905.058
10 0 59476  30102.000000  0    5645782.688  -3782609.795   1123507.679
10 0 59476  30222.000000  0    5618397.137  -3980654.706    223327.654
10 0 59476  30342.000000  0    5489976.269  -4107766.557   -680784.305
10 0 59476  30462.000000  0    5264091.719  -4160026.316  -1572921.641
10 0 59476  30582.000000  0    4946087.080  -4134915.009  -2437410.504
10 0 59476  30702.000000  0    4542951.503  -4031383.302  -3259091.669
10 0 59476  30822.000000  0    4063162.405  -3849891.006  -4023590.263
10 0 59476  30942.000000  0    3516500.981  -3592415.570  -4717567.154
10 0 59476  31062.000000  0    2913846.517  -3262430.293  -5328948.017
10 0 59476  31182.000000  0    2266954.402  -2864853.271  -5847125.307
10 0 59476  31302.000000  0    1588224.470  -2405970.403  -6263131.551
10 0 59476  31422.000000  0     890462.913  -1893332.868  -6569785.322
10 0 59476  31542.000000  0     186641.299  -1335629.367  -6761804.810
10 0 59476  31662.000000  0    -510341.048   -742538.449  -6835888.368
10 0 59476  31782.000000  0   -1187887.681   -124562.963  -6790764.199
10 0 59476  31902.000000  0   -1833927.444    507151.641  -6627209.500
10 0 59476  32022.000000  0   -2437124.533   1141013.100  -6348037.934
10 0 59476  32142.000000  0   -2987073.048   1765189.661  -5958056.556
10 0 59476  32262.000000  0   -3474474.835   2367825.931  -5463992.517
10 0 59476  32382.000000  0   -3891298.979   2937265.587  -4874389.116
10 0 59476  32502.000000  0   -4230919.342   3462276.476  -4199468.815
10 0 59476  32622.000000  0   -4488225.284   3932273.256  -3450965.406
10 0 59476  32742.000000  0   -4659704.322   4337533.938  -2641928.845
10 0 59476  32862.000000  0   -4743495.575   4669404.824  -1786502.662
10 0 59476  32982.000000  0   -4739411.011   4920488.964   -899678.573
10 0 59476  33102.000000  0   -4648924.357   5084813.857      2969.081
10 0 59476  33222.000000  0   -4475124.184   5157972.399    905563.488
10 0 59476  33342.000000  0   -4222635.980   5137233.408   1792212.747
10 0 59476  33462.000000  0   -3897511.212   5021617.687   2647300.421
10 0 59476  33582.000000  0   -3507087.108   4811937.831   3455768.905
10 0 59476  33702.000000  0   -3059822.193   4510802.157   4203390.311
10 0 59476  33822.000000  0   -2565112.410   4122582.944   4877020.691
10 0 59476  33942.000000  0   -2033091.031   3653348.865   5464832.414
10 0 59476  34062.000000  0   -1474418.052   3110763.689   5956519.955
10 0 59476  34182.000000  0    -900063.770   2503954.382   6343475.844
10 0 59476  34302.000000  0    -321092.298   1843351.610   6618934.112
10 0 59476  34422.000000  0     251550.761   1140507.634   6778082.806
10 0 59476  34542.000000  0     807245.072    407892.047   6818142.935
10 0 59476  34662.000000  0    1335891.463   -341328.940   6738413.368
10 0 59476  34782.000000  0    1828094.536  -1093528.300   6540283.359
10 0 59476  34902.000000  0    2275329.467  -1834865.403   6227209.941
10 0 59476  35022.000000  0    2670090.708  -2551540.385   5804662.575
10 0 59476  35142.000000  0    3006020.479  -3230052.456   5280032.962
10 0 59476  35262.000000  0    3278013.513  -3857456.935   4662511.493
10 0 59476  35382.000000  0    3482297.520  -4421616.588   3962932.078
10 0 59476  35502.000000  0    3616487.269  -4911442.860   3193585.256
10 0 59476  35622.000000  0    3679609.963  -5317120.172   2368003.076
10 0 59476  35742.000000  0    3672101.943  -5630308.973   1500719.003
10 0 59476  35862.000000  0    3595776.056  -5844321.758    607007.054
10 0 59476  35982.000000  0    3453760.514  -5954266.578   -297393.569
10 0 59476  36102.000000  0    3250412.126  -5957157.555  -1196563.894
10 0 59476  36222.000000  0    2991202.246  -5851985.208  -2074695.422
10 0 59476  36342.000000  0    2682581.717  -5639747.280  -2916374.896
10 0 59476  36462.000000  0    2331827.657  -5323439.134  -3706861.099
10 0 59476  36582.000000  0    1946875.202  -4908003.388  -4432345.649
99
